OBJECT_NAME,OBJECT_ID,EPOCH,MEAN_MOTION,ECCENTRICITY,INCLINATION,RA_OF_ASC_NODE,ARG_OF_PERICENTER,MEAN_ANOMALY,EPHEMERIS_TYPE,CLASSIFICATION_TYPE,NORAD_CAT_ID,ELEMENT_SET_NO,REV_AT_EPOCH,BSTAR,MEAN_MOTION_DOT,MEAN_MOTION_DDOT
ONEWEB-0012,2019-010A,2026-07-05T00:52:29.313696,13.16596055,.00016952,87.9080,225.2400,88.1266,272.0059,0,U,44057,999,35391,.11240037E-3,.56E-6,0
ONEWEB-0010,2019-010B,2026-07-05T01:28:58.751904,13.16593291,.00021712,87.9081,225.2310,104.0991,256.0382,0,U,44058,999,35396,-.12806271E-4,.8E-7,0
ONEWEB-0008,2019-010C,2026-07-04T20:37:08.810400,13.16592943,.00022613,87.9083,225.2666,90.5104,269.6286,0,U,44059,999,35405,.21852962E-3,.96E-6,0
ONEWEB-0007,2019-010D,2026-07-04T21:47:55.982112,13.15547941,.00018097,87.8995,255.6906,104.9667,255.1664,0,U,44060,999,35370,-.40059824E-3,-.138E-5,0
ONEWEB-0006,2019-010E,2026-07-04T21:53:38.692896,13.15550465,.00021843,87.9001,255.6561,100.4269,259.7107,0,U,44061,999,35375,-.2456193E-3,-.8E-6,0
ONEWEB-0011,2019-010F,2026-07-04T10:10:51.751776,13.15548901,.00022341,87.9006,255.7631,100.1381,260.0001,0,U,44062,999,35368,.34534852E-3,.143E-5,0
ONEWEB-0013,2020-008A,2026-07-05T01:12:15.074208,13.09463475,.00013888,87.8511,49.2201,47.3674,312.7569,0,U,45131,999,30840,-.70195381E-4,-.12E-6,0
ONEWEB-0017,2020-008B,2026-07-05T00:29:01.778208,13.10375990,.00019039,87.8819,32.7151,90.4349,269.6997,0,U,45132,999,31028,.16573066E-2,.591E-5,0
ONEWEB-0020,2020-008C,2026-07-04T23:44:58.084224,13.10372444,.00018157,87.8822,32.7208,85.2739,274.8596,0,U,45133,999,31067,-.17920033E-2,-.613E-5,0
ONEWEB-0021,2020-008D,2026-07-05T00:06:57.680928,13.10375723,.00017177,87.8822,32.7324,87.1307,273.0017,0,U,45134,999,31098,-.51557156E-3,-.167E-5,0
ONEWEB-0023,2020-008F,2026-07-05T00:22:52.298112,13.10378884,.00018825,87.8828,32.7134,80.1209,280.0130,0,U,45136,999,31041,.13132303E-2,.471E-5,0
ONEWEB-0024,2020-008G,2026-07-04T20:02:47.956128,13.10371318,.00017811,87.8831,32.7430,87.7656,272.3675,0,U,45137,999,31055,-.19389245E-2,-.664E-5,0
ONEWEB-0025,2020-008H,2026-07-04T20:02:24.520992,13.10371992,.00022879,87.8832,32.7329,83.8171,276.3217,0,U,45138,999,31088,-.16718091E-2,-.571E-5,0
ONEWEB-0026,2020-008J,2026-07-04T18:47:40.938144,13.11415229,.00019352,87.8878,17.5643,91.5251,268.6098,0,U,45139,999,31341,-.12487766E-2,-.43E-5,0
ONEWEB-0028,2020-008K,2026-07-04T20:02:10.081824,13.11414942,.00015175,87.8873,17.5616,72.2751,287.8543,0,U,45140,999,31093,.14867293E-2,.54E-5,0
ONEWEB-0032,2020-008L,2026-07-04T20:51:44.800128,13.10373641,.0001673,87.8820,32.7471,69.4920,290.6387,0,U,45141,999,31061,.1934887E-2,.688E-5,0
ONEWEB-0033,2020-008M,2026-07-04T23:54:44.355744,13.10373787,.00020745,87.8819,32.7285,99.8125,260.3236,0,U,45142,999,31054,-.13620318E-2,-.463E-5,0
ONEWEB-0035,2020-008N,2026-07-05T00:24:17.153280,13.10373948,.00019158,87.8819,32.7174,87.9133,272.2214,0,U,45143,999,31027,.15542669E-2,.555E-5,0
ONEWEB-0036,2020-008P,2026-07-04T23:52:07.449888,13.10369943,.0001786,87.8836,32.7381,79.5963,280.5366,0,U,45144,999,31069,-.15805356E-2,-.539E-5,0
ONEWEB-0038,2020-008Q,2026-07-04T19:02:31.753248,13.11416711,.00011885,87.8895,17.5737,152.1803,207.9388,0,U,45145,999,31263,-.15354904E-2,-.531E-5,0
ONEWEB-0039,2020-008R,2026-07-04T20:19:43.555296,13.10376313,.00014729,87.8822,32.7487,70.5015,289.6271,0,U,45146,999,31047,-.77316869E-3,-.257E-5,0
ONEWEB-0040,2020-008S,2026-07-04T23:49:50.409984,13.10372821,.00019829,87.8818,32.7303,77.9030,282.2319,0,U,45147,999,31019,-.16779291E-2,-.573E-5,0
ONEWEB-0043,2020-008U,2026-07-04T20:12:35.217792,13.10368407,.0001509,87.8825,32.7492,70.9088,289.2202,0,U,45149,999,31049,-.14112673E-2,-.48E-5,0
ONEWEB-0044,2020-008V,2026-07-05T00:33:55.294560,13.10375424,.00018024,87.8829,32.7142,80.9699,279.1632,0,U,45150,999,31081,.17885383E-2,.637E-5,0
ONEWEB-0045,2020-008W,2026-07-04T22:34:44.429664,13.11415608,.00017038,87.8887,17.5256,87.3986,272.7337,0,U,45151,999,31273,-.14014322E-2,-.484E-5,0
ONEWEB-0047,2020-008X,2026-07-05T00:23:53.408832,13.10374598,.00017862,87.8827,32.7148,92.8608,267.2724,0,U,45152,999,31053,.15800847E-2,.564E-5,0
ONEWEB-0048,2020-008Y,2026-07-05T00:16:44.768928,13.10378427,.00017731,87.8820,32.7355,88.4456,271.6874,0,U,45153,999,31014,.48430913E-3,.182E-5,0
ONEWEB-0049,2020-008Z,2026-07-05T00:21:26.061408,13.10374023,.00020936,87.8819,32.7240,76.1841,283.9519,0,U,45154,999,31036,.11072158E-2,.399E-5,0
ONEWEB-0051,2020-008AA,2026-07-04T18:52:34.555584,13.11415271,.00021427,87.8876,17.5626,91.0969,269.0405,0,U,45155,999,31339,-.15259192E-3,-.41E-6,0
ONEWEB-0052,2020-008AB,2026-07-04T19:21:21.168000,13.10371862,.00019484,87.8819,32.7527,74.8767,285.2576,0,U,45156,999,31024,.11802058E-2,.425E-5,0
