ONEWEB-0012             
1 44057U 19010A   26186.03645039  .00000056  00000+0  11240-3 0  9995
2 44057  87.9080 225.2400 0001695  88.1266 272.0059 13.16596055353918
ONEWEB-0010             
1 44058U 19010B   26186.06179111  .00000008  00000+0 -12806-4 0  9990
2 44058  87.9081 225.2310 0002171 104.0991 256.0382 13.16593291353968
ONEWEB-0008             
1 44059U 19010C   26185.85912975  .00000096  00000+0  21853-3 0  9997
2 44059  87.9083 225.2666 0002261  90.5104 269.6286 13.16592943354057
ONEWEB-0007             
1 44060U 19010D   26185.90828683 -.00000138  00000+0 -40060-3 0  9997
2 44060  87.8995 255.6906 0001809 104.9667 255.1664 13.15547941353703
ONEWEB-0006             
1 44061U 19010E   26185.91225339 -.00000080  00000+0 -24562-3 0  9993
2 44061  87.9001 255.6561 0002184 100.4269 259.7107 13.15550465353758
ONEWEB-0011             
1 44062U 19010F   26185.42421009  .00000143  00000+0  34535-3 0  9991
2 44062  87.9006 255.7631 0002234 100.1381 260.0001 13.15548901353683
ONEWEB-0013             
1 45131U 20008A   26186.05017447 -.00000012  00000+0 -70195-4 0  9995
2 45131  87.8511  49.2201 0001388  47.3674 312.7569 13.09463475308405
ONEWEB-0017             
1 45132U 20008B   26186.02015947  .00000591  00000+0  16573-2 0  9994
2 45132  87.8819  32.7151 0001903  90.4349 269.6997 13.10375990310289
ONEWEB-0020             
1 45133U 20008C   26185.98956116 -.00000613  00000+0 -17920-2 0  9995
2 45133  87.8822  32.7208 0001815  85.2739 274.8596 13.10372444310671
ONEWEB-0021             
1 45134U 20008D   26186.00483427 -.00000167  00000+0 -51557-3 0  9999
2 45134  87.8822  32.7324 0001717  87.1307 273.0017 13.10375723310980
ONEWEB-0023             
1 45136U 20008F   26186.01588308  .00000471  00000+0  13132-2 0  9998
2 45136  87.8828  32.7134 0001882  80.1209 280.0130 13.10378884310417
ONEWEB-0024             
1 45137U 20008G   26185.83527727 -.00000664  00000+0 -19389-2 0  9992
2 45137  87.8831  32.7430 0001781  87.7656 272.3675 13.10371318310556
ONEWEB-0025             
1 45138U 20008H   26185.83500603 -.00000571  00000+0 -16718-2 0  9997
2 45138  87.8832  32.7329 0002287  83.8171 276.3217 13.10371992310886
ONEWEB-0026             
1 45139U 20008J   26185.78311271 -.00000430  00000+0 -12488-2 0  9997
2 45139  87.8878  17.5643 0001935  91.5251 268.6098 13.11415229313417
ONEWEB-0028             
1 45140U 20008K   26185.83483891  .00000540  00000+0  14867-2 0  9996
2 45140  87.8873  17.5616 0001517  72.2751 287.8543 13.11414942310934
ONEWEB-0032             
1 45141U 20008L   26185.86926852  .00000688  00000+0  19349-2 0  9992
2 45141  87.8820  32.7471 0001673  69.4920 290.6387 13.10373641310616
ONEWEB-0033             
1 45142U 20008M   26185.99634671 -.00000463  00000+0 -13620-2 0  9991
2 45142  87.8819  32.7285 0002074  99.8125 260.3236 13.10373787310548
ONEWEB-0035             
1 45143U 20008N   26186.01686520  .00000555  00000+0  15543-2 0  9992
2 45143  87.8819  32.7174 0001915  87.9133 272.2214 13.10373948310273
ONEWEB-0036             
1 45144U 20008P   26185.99453067 -.00000539  00000+0 -15805-2 0  9992
2 45144  87.8836  32.7381 0001786  79.5963 280.5366 13.10369943310693
ONEWEB-0038             
1 45145U 20008Q   26185.79342307 -.00000531  00000+0 -15355-2 0  9997
2 45145  87.8895  17.5737 0001188 152.1803 207.9388 13.11416711312632
ONEWEB-0039             
1 45146U 20008R   26185.84703189 -.00000257  00000+0 -77317-3 0  9995
2 45146  87.8822  32.7487 0001472  70.5015 289.6271 13.10376313310478
ONEWEB-0040             
1 45147U 20008S   26185.99294456 -.00000573  00000+0 -16779-2 0  9999
2 45147  87.8818  32.7303 0001982  77.9030 282.2319 13.10372821310196
ONEWEB-0043             
1 45149U 20008U   26185.84207428 -.00000480  00000+0 -14113-2 0  9995
2 45149  87.8825  32.7492 0001509  70.9088 289.2202 13.10368407310492
ONEWEB-0044             
1 45150U 20008V   26186.02355665  .00000637  00000+0  17885-2 0  9996
2 45150  87.8829  32.7142 0001802  80.9699 279.1632 13.10375424310813
ONEWEB-0045             
1 45151U 20008W   26185.94079201 -.00000484  00000+0 -14014-2 0  9999
2 45151  87.8887  17.5256 0001703  87.3986 272.7337 13.11415608312739
ONEWEB-0047             
1 45152U 20008X   26186.01659038  .00000564  00000+0  15801-2 0  9993
2 45152  87.8827  32.7148 0001786  92.8608 267.2724 13.10374598310532
ONEWEB-0048             
1 45153U 20008Y   26186.01162927  .00000182  00000+0  48431-3 0  9992
2 45153  87.8820  32.7355 0001773  88.4456 271.6874 13.10378427310141
ONEWEB-0049             
1 45154U 20008Z   26186.01488497  .00000399  00000+0  11072-2 0  9996
2 45154  87.8819  32.7240 0002093  76.1841 283.9519 13.10374023310365
ONEWEB-0051             
1 45155U 20008AA  26185.78651106 -.00000041  00000+0 -15259-3 0  9997
2 45155  87.8876  17.5626 0002142  91.0969 269.0405 13.11415271313397
ONEWEB-0052             
1 45156U 20008AB  26185.80649500  .00000425  00000+0  11802-2 0  9999
2 45156  87.8819  32.7527 0001948  74.8767 285.2576 13.10371862310248
